{"type": "FeatureCollection", "features": [ {"type": "Feature", "properties": {"norad_id": 34340, "name": "COSMOS 2251 DEB", "group": "cosmos-2251-debris", "lat": 49.45564645064924, "lon": -52.131989823103424, "alt_km": 762.2897791312216, "timestamp": "2025-12-24T11:33:00.412669+00:00", "meta": {"OBJECT_NAME": "COSMOS 2251 DEB", "OBJECT_ID": "1993-036PN", "EPOCH": "2025-12-24T02:40:57.823104", "MEAN_MOTION": 13.79618422, "ECCENTRICITY": 0.0284094, "INCLINATION": 74.0787, "RA_OF_ASC_NODE": 288.9928, "ARG_OF_PERICENTER": 34.136, "MEAN_ANOMALY": 342.7673, "EPHEMERIS_TYPE": 0, "CLASSIFICATION_TYPE": "U", "NORAD_CAT_ID": 34340, "ELEMENT_SET_NO": 999, "REV_AT_EPOCH": 84425, "BSTAR": 0.0016293, "MEAN_MOTION_DOT": 2.254e-05, "MEAN_MOTION_DDOT": 0}, "tle": {"line1": "1 34340U 93036PN  25358.11178036  .00002254  00000+0  16293-2 0  9990", "line2": "2 34340  74.0787 288.9928 0284094  34.1360 342.7673 13.79618422844257"}}, "geometry": {"type": "Point", "coordinates": [-52.131989823103424, 49.45564645064924]}}, {"type": "Feature", "properties": {"norad_id": 34343, "name": "COSMOS 2251 DEB", "group": "cosmos-2251-debris", "lat": -36.144483854958146, "lon": 54.702736352282706, "alt_km": 651.7711114404683, "timestamp": "2025-12-24T11:33:00.412680+00:00", "meta": {"OBJECT_NAME": "COSMOS 2251 DEB", "OBJECT_ID": "1993-036PR", "EPOCH": "2025-12-24T03:39:27.367776", "MEAN_MOTION": 14.69603134, "ECCENTRICITY": 0.0024365, "INCLINATION": 74.0201, "RA_OF_ASC_NODE": 67.4217, "ARG_OF_PERICENTER": 338.594, "MEAN_ANOMALY": 44.6204, "EPHEMERIS_TYPE": 0, "CLASSIFICATION_TYPE": "U", "NORAD_CAT_ID": 34343, "ELEMENT_SET_NO": 999, "REV_AT_EPOCH": 88898, "BSTAR": 0.0012919, "MEAN_MOTION_DOT": 7.69e-05, "MEAN_MOTION_DDOT": 0}, "tle": {"line1": "1 34343U 93036PR  25358.15240009  .00007690  00000+0  12919-2 0  9997", "line2": "2 34343  74.0201  67.4217 0024365 338.5940  44.6204 14.69603134888980"}}, "geometry": {"type": "Point", "coordinates": [54.702736352282706, -36.144483854958146]}}, {"type": "Feature", "properties": {"norad_id": 34344, "name": "COSMOS 2251 DEB", "group": "cosmos-2251-debris", "lat": -15.690461913654143, "lon": 84.75914300644715, "alt_km": 806.3317865790077, "timestamp": "2025-12-24T11:33:00.412691+00:00", "meta": {"OBJECT_NAME": "COSMOS 2251 DEB", "OBJECT_ID": "1993-036PS", "EPOCH": "2025-12-20T16:41:07.998144", "MEAN_MOTION": 14.16466858, "ECCENTRICITY": 0.01566321, "INCLINATION": 73.9786, "RA_OF_ASC_NODE": 96.1449, "ARG_OF_PERICENTER": 278.7098, "MEAN_ANOMALY": 204.8003, "EPHEMERIS_TYPE": 0, "CLASSIFICATION_TYPE": "U", "NORAD_CAT_ID": 34344, "ELEMENT_SET_NO": 999, "REV_AT_EPOCH": 86209, "BSTAR": 0.0013151537, "MEAN_MOTION_DOT": 2.924e-05, "MEAN_MOTION_DDOT": 0}, "tle": {"line1": "1 34344U 93036PS  25354.69523146  .00002924  00000+0  13152-2 0  9994", "line2": "2 34344  73.9786  96.1449 0156632 278.7098 204.8003 14.16466858862098"}}, "geometry": {"type": "Point", "coordinates": [84.75914300644715, -15.690461913654143]}}, {"type": "Feature", "properties": {"norad_id": 34346, "name": "COSMOS 2251 DEB", "group": "cosmos-2251-debris", "lat": 66.54539120142607, "lon": 70.4545308002101, "alt_km": 737.9119967804345, "timestamp": "2025-12-24T11:33:00.412701+00:00", "meta": {"OBJECT_NAME": "COSMOS 2251 DEB", "OBJECT_ID": "1993-036PU", "EPOCH": "2025-12-23T19:45:29.225088", "MEAN_MOTION": 13.9972768, "ECCENTRICITY": 0.02061943, "INCLINATION": 73.9947, "RA_OF_ASC_NODE": 293.0137, "ARG_OF_PERICENTER": 109.2819, "MEAN_ANOMALY": 283.6893, "EPHEMERIS_TYPE": 0, "CLASSIFICATION_TYPE": "U", "NORAD_CAT_ID": 34346, "ELEMENT_SET_NO": 999, "REV_AT_EPOCH": 85565, "BSTAR": 0.00095160643, "MEAN_MOTION_DOT": 1.651e-05, "MEAN_MOTION_DDOT": 0}, "tle": {"line1": "1 34346U 93036PU  25357.82325492  .00001651  00000+0  95161-3 0  9995", "line2": "2 34346  73.9947 293.0137 0206194 109.2819 283.6893 13.99727680855658"}}, "geometry": {"type": "Point", "coordinates": [70.4545308002101, 66.54539120142607]}}, {"type": "Feature", "properties": {"norad_id": 34383, "name": "COSMOS 2251 DEB", "group": "cosmos-2251-debris", "lat": -72.00301716278125, "lon": 155.35776669643602, "alt_km": 544.5291088830063, "timestamp": "2025-12-24T11:33:00.412711+00:00", "meta": {"OBJECT_NAME": "COSMOS 2251 DEB", "OBJECT_ID": "1993-036PY", "EPOCH": "2025-12-24T00:54:58.420224", "MEAN_MOTION": 15.10004461, "ECCENTRICITY": 0.0002893, "INCLINATION": 74.0206, "RA_OF_ASC_NODE": 274.3783, "ARG_OF_PERICENTER": 43.1951, "MEAN_ANOMALY": 330.853, "EPHEMERIS_TYPE": 0, "CLASSIFICATION_TYPE": "U", "NORAD_CAT_ID": 34383, "ELEMENT_SET_NO": 999, "REV_AT_EPOCH": 89284, "BSTAR": 0.0032007, "MEAN_MOTION_DOT": 0.00052376, "MEAN_MOTION_DDOT": 0}, "tle": {"line1": "1 34383U 93036PY  25358.03817616  .00052376  00000+0  32007-2 0  9993", "line2": "2 34383  74.0206 274.3783 0002893  43.1951 330.8530 15.10004461892846"}}, "geometry": {"type": "Point", "coordinates": [155.35776669643602, -72.00301716278125]}}, {"type": "Feature", "properties": {"norad_id": 34387, "name": "COSMOS 2251 DEB", "group": "cosmos-2251-debris", "lat": -52.24582087999492, "lon": 168.3825934735184, "alt_km": 726.3731125194081, "timestamp": "2025-12-24T11:33:00.412723+00:00", "meta": {"OBJECT_NAME": "COSMOS 2251 DEB", "OBJECT_ID": "1993-036QC", "EPOCH": "2025-12-22T21:51:59.179968", "MEAN_MOTION": 14.43841402, "ECCENTRICITY": 0.00388908, "INCLINATION": 74.0387, "RA_OF_ASC_NODE": 192.9899, "ARG_OF_PERICENTER": 288.1124, "MEAN_ANOMALY": 138.3937, "EPHEMERIS_TYPE": 0, "CLASSIFICATION_TYPE": "U", "NORAD_CAT_ID": 34387, "ELEMENT_SET_NO": 999, "REV_AT_EPOCH": 88328, "BSTAR": 0.00026862893, "MEAN_MOTION_DOT": 8.96e-06, "MEAN_MOTION_DDOT": 0}, "tle": {"line1": "1 34387U 93036QC  25356.91110162  .00000896  00000+0  26863-3 0  9998", "line2": "2 34387  74.0387 192.9899 0038890 288.1124 138.3937 14.43841402883281"}}, "geometry": {"type": "Point", "coordinates": [168.3825934735184, -52.24582087999492]}}, {"type": "Feature", "properties": {"norad_id": 34388, "name": "COSMOS 2251 DEB", "group": "cosmos-2251-debris", "lat": 17.41117371106127, "lon": 15.933349063428748, "alt_km": 727.0887785169916, "timestamp": "2025-12-24T11:33:00.412814+00:00", "meta": {"OBJECT_NAME": "COSMOS 2251 DEB", "OBJECT_ID": "1993-036QD", "EPOCH": "2025-12-23T19:56:43.026720", "MEAN_MOTION": 14.49414126, "ECCENTRICITY": 0.00137026, "INCLINATION": 74.0374, "RA_OF_ASC_NODE": 202.3023, "ARG_OF_PERICENTER": 249.8197, "MEAN_ANOMALY": 120.7955, "EPHEMERIS_TYPE": 0, "CLASSIFICATION_TYPE": "U", "NORAD_CAT_ID": 34388, "ELEMENT_SET_NO": 999, "REV_AT_EPOCH": 88316, "BSTAR": 0.00053763604, "MEAN_MOTION_DOT": 2.032e-05, "MEAN_MOTION_DDOT": 0}, "tle": {"line1": "1 34388U 93036QD  25357.83105355  .00002032  00000+0  53764-3 0  9993", "line2": "2 34388  74.0374 202.3023 0013702 249.8197 120.7955 14.49414126883169"}}, "geometry": {"type": "Point", "coordinates": [15.933349063428748, 17.41117371106127]}}, {"type": "Feature", "properties": {"norad_id": 34389, "name": "COSMOS 2251 DEB", "group": "cosmos-2251-debris", "lat": -31.476019327849556, "lon": 58.14803976642114, "alt_km": 771.034599943493, "timestamp": "2025-12-24T11:33:00.412828+00:00", "meta": {"OBJECT_NAME": "COSMOS 2251 DEB", "OBJECT_ID": "1993-036QE", "EPOCH": "2025-12-24T01:07:06.558816", "MEAN_MOTION": 14.41557638, "ECCENTRICITY": 0.0029391, "INCLINATION": 74.0175, "RA_OF_ASC_NODE": 228.8481, "ARG_OF_PERICENTER": 338.7552, "MEAN_ANOMALY": 139.5592, "EPHEMERIS_TYPE": 0, "CLASSIFICATION_TYPE": "U", "NORAD_CAT_ID": 34389, "ELEMENT_SET_NO": 999, "REV_AT_EPOCH": 88175, "BSTAR": 0.00029776, "MEAN_MOTION_DOT": 9.46e-06, "MEAN_MOTION_DDOT": 0}, "tle": {"line1": "1 34389U 93036QE  25358.04660369  .00000946  00000+0  29776-3 0  9997", "line2": "2 34389  74.0175 228.8481 0029391 338.7552 139.5592 14.41557638881750"}}, "geometry": {"type": "Point", "coordinates": [58.14803976642114, -31.476019327849556]}}, {"type": "Feature", "properties": {"norad_id": 34396, "name": "COSMOS 2251 DEB", "group": "cosmos-2251-debris", "lat": 73.91874399234898, "lon": -162.32582475357415, "alt_km": 636.296071226564, "timestamp": "2025-12-24T11:33:00.412839+00:00", "meta": {"OBJECT_NAME": "COSMOS 2251 DEB", "OBJECT_ID": "1993-036QM", "EPOCH": "2025-12-23T17:54:48.174624", "MEAN_MOTION": 14.74694901, "ECCENTRICITY": 0.00047406, "INCLINATION": 74.0294, "RA_OF_ASC_NODE": 102.5296, "ARG_OF_PERICENTER": 138.8654, "MEAN_ANOMALY": 13.2669, "EPHEMERIS_TYPE": 0, "CLASSIFICATION_TYPE": "U", "NORAD_CAT_ID": 34396, "ELEMENT_SET_NO": 999, "REV_AT_EPOCH": 88508, "BSTAR": 0.0020635152, "MEAN_MOTION_DOT": 0.00013784, "MEAN_MOTION_DDOT": 0}, "tle": {"line1": "1 34396U 93036QM  25357.74639091  .00013784  00000+0  20635-2 0  9997", "line2": "2 34396  74.0294 102.5296 0004740 138.8654  13.2669 14.74694901885089"}}, "geometry": {"type": "Point", "coordinates": [-162.32582475357415, 73.91874399234898]}}, {"type": "Feature", "properties": {"norad_id": 34400, "name": "COSMOS 2251 DEB", "group": "cosmos-2251-debris", "lat": -72.24235249719086, "lon": -66.67991804192945, "alt_km": 396.98017099042954, "timestamp": "2025-12-24T11:33:00.412850+00:00", "meta": {"OBJECT_NAME": "COSMOS 2251 DEB", "OBJECT_ID": "1993-036QR", "EPOCH": "2025-12-24T01:07:12.163584", "MEAN_MOTION": 15.58635981, "ECCENTRICITY": 0.0002884, "INCLINATION": 73.9625, "RA_OF_ASC_NODE": 358.2177, "ARG_OF_PERICENTER": 215.066, "MEAN_ANOMALY": 145.0367, "EPHEMERIS_TYPE": 0, "CLASSIFICATION_TYPE": "U", "NORAD_CAT_ID": 34400, "ELEMENT_SET_NO": 999, "REV_AT_EPOCH": 90150, "BSTAR": 0.0033378, "MEAN_MOTION_DOT": 0.00264923, "MEAN_MOTION_DDOT": 0}, "tle": {"line1": "1 34400U 93036QR  25358.04666856  .00264923  00000+0  33378-2 0  9997", "line2": "2 34400  73.9625 358.2177 0002884 215.0660 145.0367 15.58635981901502"}}, "geometry": {"type": "Point", "coordinates": [-66.67991804192945, -72.24235249719086]}}]}